SL-14 R/B               
1 16792U 86046B   26052.50732449  .00000371  00000+0  40019-4 0  9996
2 16792  82.4795  95.4763 0021568 282.1674  77.7126 14.85573163124008
SL-14 R/B               
1 16882U 86055B   26052.72423897  .00000443  00000+0  48163-4 0  9992
2 16882  82.5228 141.6773 0019557  29.2667 132.0231 14.85625630116990
AJISAI (EGS)            
1 16908U 86061A   26052.82161001 -.00000078  00000+0  13940-3 0  9994
2 16908  50.0085 142.1427 0011232 246.0962 214.1274 12.44515406466024
COSMOS 1812             
1 17295U 87003A   26052.75153210  .00517168  12433-3  76234-3 0  9990
2 17295  82.4739 213.8456 0004499 294.1465  65.9344 16.04992459141911
SL-14 R/B               
1 17567U 87024B   26052.61396528  .00000388  00000+0  41404-4 0  9997
2 17567  82.5270 107.8753 0017099 317.6009  42.3885 14.86115636 85740
COSMOS 1833             
1 17589U 87027A   26052.29552165 -.00000072  00000+0 -12554-4 0  9995
2 17589  70.9233   0.4715 0024823 236.9789 122.8947 14.13057238  8001
SL-16 R/B               
1 17590U 87027B   26052.74019900  .00000224  00000+0  13490-3 0  9998
2 17590  71.0038 310.1055 0004263 172.1947 187.9244 14.17165804 13088
SL-14 R/B               
1 17912U 87038B   26052.73538657  .00000394  00000+0  42964-4 0  9999
2 17912  82.5030 311.8356 0018281 213.7882 146.2170 14.85353200 76867
COSMOS 1844             
1 17973U 87041A   26052.56022895  .00000164  00000+0  10997-3 0  9998
2 17973  70.8984  68.1974 0029199  43.2518 317.0889 14.14551386  1301
SL-14 R/B               
1 18153U 87055B   26052.31101141  .00000529  00000+0  58085-4 0  9995
2 18153  82.5016   4.4637 0022211  69.1328 291.2263 14.85607116 67505
COSMOS 1867             
1 18187U 87060A   26052.23337368 -.00000032  00000+0  25775-4 0  9991
2 18187  65.0126 352.7887 0014264 277.7452  82.2013 14.31500200 17581
SL-14 R/B               
1 18749U 88001B   26052.50723552  .00000484  00000+0  53239-4 0  9991
2 18749  82.5120 210.5785 0016720 293.9076  66.0388 14.85505672 39623
