CCSDS_OMM_VERS = 2.0
CREATION_DATE  = 
ORIGINATOR     = 

OBJECT_NAME    = SL-14 R/B
OBJECT_ID      = 1986-046B
CENTER_NAME    = EARTH
REF_FRAME      = TEME
TIME_SYSTEM    = UTC
MEAN_ELEMENT_THEORY = SGP/SGP4

EPOCH          = 2026-02-21T12:10:32.835936
MEAN_MOTION    = 14.85573163
ECCENTRICITY   = .0021568
INCLINATION    = 82.4795
RA_OF_ASC_NODE = 95.4763
ARG_OF_PERICENTER = 282.1674
MEAN_ANOMALY   = 77.7126

EPHEMERIS_TYPE = 0
CLASSIFICATION_TYPE = U
NORAD_CAT_ID   = 16792
ELEMENT_SET_NO = 999
REV_AT_EPOCH   = 12400
BSTAR          = .40019E-4
MEAN_MOTION_DOT = .371E-5
MEAN_MOTION_DDOT = 0

CCSDS_OMM_VERS = 2.0
CREATION_DATE  = 
ORIGINATOR     = 

OBJECT_NAME    = SL-14 R/B
OBJECT_ID      = 1986-055B
CENTER_NAME    = EARTH
REF_FRAME      = TEME
TIME_SYSTEM    = UTC
MEAN_ELEMENT_THEORY = SGP/SGP4

EPOCH          = 2026-02-21T17:22:54.247008
MEAN_MOTION    = 14.85625630
ECCENTRICITY   = .0019557
INCLINATION    = 82.5228
RA_OF_ASC_NODE = 141.6773
ARG_OF_PERICENTER = 29.2667
MEAN_ANOMALY   = 132.0231

EPHEMERIS_TYPE = 0
CLASSIFICATION_TYPE = U
NORAD_CAT_ID   = 16882
ELEMENT_SET_NO = 999
REV_AT_EPOCH   = 11699
BSTAR          = .48163E-4
MEAN_MOTION_DOT = .443E-5
MEAN_MOTION_DDOT = 0

CCSDS_OMM_VERS = 2.0
CREATION_DATE  = 
ORIGINATOR     = 

OBJECT_NAME    = AJISAI (EGS)
OBJECT_ID      = 1986-061A
CENTER_NAME    = EARTH
REF_FRAME      = TEME
TIME_SYSTEM    = UTC
MEAN_ELEMENT_THEORY = SGP/SGP4

EPOCH          = 2026-02-21T19:43:07.104864
MEAN_MOTION    = 12.44515406
ECCENTRICITY   = .0011232
INCLINATION    = 50.0085
RA_OF_ASC_NODE = 142.1427
ARG_OF_PERICENTER = 246.0962
MEAN_ANOMALY   = 214.1274

EPHEMERIS_TYPE = 0
CLASSIFICATION_TYPE = U
NORAD_CAT_ID   = 16908
ELEMENT_SET_NO = 999
REV_AT_EPOCH   = 46602
BSTAR          = .1394E-3
MEAN_MOTION_DOT = -.78E-6
MEAN_MOTION_DDOT = 0

CCSDS_OMM_VERS = 2.0
CREATION_DATE  = 
ORIGINATOR     = 

OBJECT_NAME    = COSMOS 1812
OBJECT_ID      = 1987-003A
CENTER_NAME    = EARTH
REF_FRAME      = TEME
TIME_SYSTEM    = UTC
MEAN_ELEMENT_THEORY = SGP/SGP4

EPOCH          = 2026-02-21T18:02:12.373440
MEAN_MOTION    = 16.04992459
ECCENTRICITY   = .0004499
INCLINATION    = 82.4739
RA_OF_ASC_NODE = 213.8456
ARG_OF_PERICENTER = 294.1465
MEAN_ANOMALY   = 65.9344

EPHEMERIS_TYPE = 0
CLASSIFICATION_TYPE = U
NORAD_CAT_ID   = 17295
ELEMENT_SET_NO = 999
REV_AT_EPOCH   = 14191
BSTAR          = .76234E-3
MEAN_MOTION_DOT = .517168E-2
MEAN_MOTION_DDOT = .12433E-3

CCSDS_OMM_VERS = 2.0
CREATION_DATE  = 
ORIGINATOR     = 

OBJECT_NAME    = SL-14 R/B
OBJECT_ID      = 1987-024B
CENTER_NAME    = EARTH
REF_FRAME      = TEME
TIME_SYSTEM    = UTC
MEAN_ELEMENT_THEORY = SGP/SGP4

EPOCH          = 2026-02-21T14:44:06.600192
MEAN_MOTION    = 14.86115636
ECCENTRICITY   = .0017099
INCLINATION    = 82.5270
RA_OF_ASC_NODE = 107.8753
ARG_OF_PERICENTER = 317.6009
MEAN_ANOMALY   = 42.3885

EPHEMERIS_TYPE = 0
CLASSIFICATION_TYPE = U
NORAD_CAT_ID   = 17567
ELEMENT_SET_NO = 999
REV_AT_EPOCH   = 8574
BSTAR          = .41404E-4
MEAN_MOTION_DOT = .388E-5
MEAN_MOTION_DDOT = 0

CCSDS_OMM_VERS = 2.0
CREATION_DATE  = 
ORIGINATOR     = 

OBJECT_NAME    = COSMOS 1833
OBJECT_ID      = 1987-027A
CENTER_NAME    = EARTH
REF_FRAME      = TEME
TIME_SYSTEM    = UTC
MEAN_ELEMENT_THEORY = SGP/SGP4

EPOCH          = 2026-02-21T07:05:33.070560
MEAN_MOTION    = 14.13057238
ECCENTRICITY   = .0024823
INCLINATION    = 70.9233
RA_OF_ASC_NODE = 0.4715
ARG_OF_PERICENTER = 236.9789
MEAN_ANOMALY   = 122.8947

EPHEMERIS_TYPE = 0
CLASSIFICATION_TYPE = U
NORAD_CAT_ID   = 17589
ELEMENT_SET_NO = 999
REV_AT_EPOCH   = 800
BSTAR          = -.12554E-4
MEAN_MOTION_DOT = -.72E-6
MEAN_MOTION_DDOT = 0

CCSDS_OMM_VERS = 2.0
CREATION_DATE  = 
ORIGINATOR     = 

OBJECT_NAME    = SL-16 R/B
OBJECT_ID      = 1987-027B
CENTER_NAME    = EARTH
REF_FRAME      = TEME
TIME_SYSTEM    = UTC
MEAN_ELEMENT_THEORY = SGP/SGP4

EPOCH          = 2026-02-21T17:45:53.193600
MEAN_MOTION    = 14.17165804
ECCENTRICITY   = .0004263
INCLINATION    = 71.0038
RA_OF_ASC_NODE = 310.1055
ARG_OF_PERICENTER = 172.1947
MEAN_ANOMALY   = 187.9244

EPHEMERIS_TYPE = 0
CLASSIFICATION_TYPE = U
NORAD_CAT_ID   = 17590
ELEMENT_SET_NO = 999
REV_AT_EPOCH   = 1308
BSTAR          = .1349E-3
MEAN_MOTION_DOT = .224E-5
MEAN_MOTION_DDOT = 0

CCSDS_OMM_VERS = 2.0
CREATION_DATE  = 
ORIGINATOR     = 

OBJECT_NAME    = SL-14 R/B
OBJECT_ID      = 1987-038B
CENTER_NAME    = EARTH
REF_FRAME      = TEME
TIME_SYSTEM    = UTC
MEAN_ELEMENT_THEORY = SGP/SGP4

EPOCH          = 2026-02-21T17:38:57.399648
MEAN_MOTION    = 14.85353200
ECCENTRICITY   = .0018281
INCLINATION    = 82.5030
RA_OF_ASC_NODE = 311.8356
ARG_OF_PERICENTER = 213.7882
MEAN_ANOMALY   = 146.2170

EPHEMERIS_TYPE = 0
CLASSIFICATION_TYPE = U
NORAD_CAT_ID   = 17912
ELEMENT_SET_NO = 999
REV_AT_EPOCH   = 7686
BSTAR          = .42964E-4
MEAN_MOTION_DOT = .394E-5
MEAN_MOTION_DDOT = 0

CCSDS_OMM_VERS = 2.0
CREATION_DATE  = 
ORIGINATOR     = 

OBJECT_NAME    = COSMOS 1844
OBJECT_ID      = 1987-041A
CENTER_NAME    = EARTH
REF_FRAME      = TEME
TIME_SYSTEM    = UTC
MEAN_ELEMENT_THEORY = SGP/SGP4

EPOCH          = 2026-02-21T13:26:43.781280
MEAN_MOTION    = 14.14551386
ECCENTRICITY   = .0029199
INCLINATION    = 70.8984
RA_OF_ASC_NODE = 68.1974
ARG_OF_PERICENTER = 43.2518
MEAN_ANOMALY   = 317.0889

EPHEMERIS_TYPE = 0
CLASSIFICATION_TYPE = U
NORAD_CAT_ID   = 17973
ELEMENT_SET_NO = 999
REV_AT_EPOCH   = 130
BSTAR          = .10997E-3
MEAN_MOTION_DOT = .164E-5
MEAN_MOTION_DDOT = 0

CCSDS_OMM_VERS = 2.0
CREATION_DATE  = 
ORIGINATOR     = 

OBJECT_NAME    = SL-14 R/B
OBJECT_ID      = 1987-055B
CENTER_NAME    = EARTH
REF_FRAME      = TEME
TIME_SYSTEM    = UTC
MEAN_ELEMENT_THEORY = SGP/SGP4

EPOCH          = 2026-02-21T07:27:51.385824
MEAN_MOTION    = 14.85607116
ECCENTRICITY   = .0022211
INCLINATION    = 82.5016
RA_OF_ASC_NODE = 4.4637
ARG_OF_PERICENTER = 69.1328
MEAN_ANOMALY   = 291.2263

EPHEMERIS_TYPE = 0
CLASSIFICATION_TYPE = U
NORAD_CAT_ID   = 18153
ELEMENT_SET_NO = 999
REV_AT_EPOCH   = 6750
BSTAR          = .58085E-4
MEAN_MOTION_DOT = .529E-5
MEAN_MOTION_DDOT = 0

CCSDS_OMM_VERS = 2.0
CREATION_DATE  = 
ORIGINATOR     = 

OBJECT_NAME    = COSMOS 1867
OBJECT_ID      = 1987-060A
CENTER_NAME    = EARTH
REF_FRAME      = TEME
TIME_SYSTEM    = UTC
MEAN_ELEMENT_THEORY = SGP/SGP4

EPOCH          = 2026-02-21T05:36:03.485952
MEAN_MOTION    = 14.31500200
ECCENTRICITY   = .0014264
INCLINATION    = 65.0126
RA_OF_ASC_NODE = 352.7887
ARG_OF_PERICENTER = 277.7452
MEAN_ANOMALY   = 82.2013

EPHEMERIS_TYPE = 0
CLASSIFICATION_TYPE = U
NORAD_CAT_ID   = 18187
ELEMENT_SET_NO = 999
REV_AT_EPOCH   = 1758
BSTAR          = .25775E-4
MEAN_MOTION_DOT = -.32E-6
MEAN_MOTION_DDOT = 0

CCSDS_OMM_VERS = 2.0
CREATION_DATE  = 
ORIGINATOR     = 

OBJECT_NAME    = SL-14 R/B
OBJECT_ID      = 1988-001B
CENTER_NAME    = EARTH
REF_FRAME      = TEME
TIME_SYSTEM    = UTC
MEAN_ELEMENT_THEORY = SGP/SGP4

EPOCH          = 2026-02-21T12:10:25.148928
MEAN_MOTION    = 14.85505672
ECCENTRICITY   = .001672
INCLINATION    = 82.5120
RA_OF_ASC_NODE = 210.5785
ARG_OF_PERICENTER = 293.9076
MEAN_ANOMALY   = 66.0388

EPHEMERIS_TYPE = 0
CLASSIFICATION_TYPE = U
NORAD_CAT_ID   = 18749
ELEMENT_SET_NO = 999
REV_AT_EPOCH   = 3962
BSTAR          = .53239E-4
MEAN_MOTION_DOT = .484E-5
MEAN_MOTION_DDOT = 0

